[{"OBJECT_NAME":"JILIN-1 GAOFEN 03D47","OBJECT_ID":"2022-167L","EPOCH":"2026-03-09T22:56:46.924224","MEAN_MOTION":15.31686941,"ECCENTRICITY":0.00089304,"INCLINATION":97.6835,"RA_OF_ASC_NODE":234.6581,"ARG_OF_PERICENTER":110.4031,"MEAN_ANOMALY":249.8169,"EPHEMERIS_TYPE":0,"CLASSIFICATION_TYPE":"U","NORAD_CAT_ID":54692,"ELEMENT_SET_NO":999,"REV_AT_EPOCH":18014,"BSTAR":0.00047294748,"MEAN_MOTION_DOT":0.00014417,"MEAN_MOTION_DDOT":0},{"OBJECT_NAME":"STARLINK-31715","OBJECT_ID":"2024-062L","EPOCH":"2026-03-09T18:15:29.905056","MEAN_MOTION":15.30189966,"ECCENTRICITY":0.00011183,"INCLINATION":53.1597,"RA_OF_ASC_NODE":255.2389,"ARG_OF_PERICENTER":94.7022,"MEAN_ANOMALY":265.4106,"EPHEMERIS_TYPE":0,"CLASSIFICATION_TYPE":"U","NORAD_CAT_ID":59384,"ELEMENT_SET_NO":999,"REV_AT_EPOCH":10968,"BSTAR":5.592198e-6,"MEAN_MOTION_DOT":-1.93e-6,"MEAN_MOTION_DDOT":0}]
